{
  "type": "FeatureCollection",
  "features": [
    {
      "type": "Feature",
      "properties": {
        "norad_id": 64694,
        "name": "GOSAT-GW (IBUKI GW)",
        "group": "resource",
        "lat": -4.54828824861248,
        "lon": 114.3378420308464,
        "alt_km": 672.6756879295281,
        "timestamp": "2025-12-25T16:53:14.311950+00:00",
        "meta_object_name": "GOSAT-GW (IBUKI GW)",
        "meta_object_id": "2025-141A",
        "meta_epoch": "2025-12-25T07:52:03.916704",
        "meta_mean_motion": 14.67559869,
        "meta_eccentricity": 0.00014335,
        "meta_inclination": 98.0439,
        "meta_ra_of_asc_node": 294.6134,
        "meta_arg_of_pericenter": 82.1583,
        "meta_mean_anomaly": 277.9784,
        "meta_ephemeris_type": 0,
        "meta_classification_type": "U",
        "meta_norad_cat_id": 64694,
        "meta_element_set_no": 999,
        "meta_rev_at_epoch": 2634,
        "meta_bstar": 0.00019498446,
        "meta_mean_motion_dot": 1.059e-05,
        "meta_mean_motion_ddot": 0,
        "tle_line1": "1 64694U 25141A   25359.32782311  .00001059  00000+0  19498-3 0  9991",
        "tle_line2": "2 64694  98.0439 294.6134 0001433  82.1583 277.9784 14.67559869 26340"
      },
      "geometry": {
        "type": "Point",
        "coordinates": [
          114.3378420308464,
          -4.54828824861248
        ]
      }
    },
    {
      "type": "Feature",
      "properties": {
        "norad_id": 64876,
        "name": "IONOSFERA-M 3",
        "group": "resource",
        "lat": -17.943304530455848,
        "lon": 138.40154165129687,
        "alt_km": 826.6484356236442,
        "timestamp": "2025-12-25T16:53:14.311961+00:00",
        "meta_object_name": "IONOSFERA-M 3",
        "meta_object_id": "2025-155A",
        "meta_epoch": "2025-12-25T07:30:42.182208",
        "meta_mean_motion": 14.21444018,
        "meta_eccentricity": 0.0001838,
        "meta_inclination": 98.58,
        "meta_ra_of_asc_node": 320.8242,
        "meta_arg_of_pericenter": 39.6732,
        "meta_mean_anomaly": 320.458,
        "meta_ephemeris_type": 0,
        "meta_classification_type": "U",
        "meta_norad_cat_id": 64876,
        "meta_element_set_no": 999,
        "meta_rev_at_epoch": 2170,
        "meta_bstar": 5.714798e-05,
        "meta_mean_motion_dot": 8.2e-07,
        "meta_mean_motion_ddot": 0,
        "tle_line1": "1 64876U 25155A   25359.31298822  .00000082  00000+0  57148-4 0  9996",
        "tle_line2": "2 64876  98.5800 320.8242 0001838  39.6732 320.4580 14.21444018 21705"
      },
      "geometry": {
        "type": "Point",
        "coordinates": [
          138.40154165129687,
          -17.943304530455848
        ]
      }
    },
    {
      "type": "Feature",
      "properties": {
        "norad_id": 64877,
        "name": "IONOSFERA-M 4",
        "group": "resource",
        "lat": 18.40886358963247,
        "lon": -41.757010348977765,
        "alt_km": 819.9426854019175,
        "timestamp": "2025-12-25T16:53:14.311970+00:00",
        "meta_object_name": "IONOSFERA-M 4",
        "meta_object_id": "2025-155B",
        "meta_epoch": "2025-12-25T06:39:49.300416",
        "meta_mean_motion": 14.21445138,
        "meta_eccentricity": 0.00012727,
        "meta_inclination": 98.5801,
        "meta_ra_of_asc_node": 320.7093,
        "meta_arg_of_pericenter": 51.5687,
        "meta_mean_anomaly": 308.5605,
        "meta_ephemeris_type": 0,
        "meta_classification_type": "U",
        "meta_norad_cat_id": 64877,
        "meta_element_set_no": 999,
        "meta_rev_at_epoch": 2169,
        "meta_bstar": 5.9389138e-05,
        "meta_mean_motion_dot": 8.7e-07,
        "meta_mean_motion_ddot": 0,
        "tle_line1": "1 64877U 25155B   25359.27765394  .00000087  00000+0  59389-4 0  9999",
        "tle_line2": "2 64877  98.5801 320.7093 0001272  51.5687 308.5605 14.21445138 21691"
      },
      "geometry": {
        "type": "Point",
        "coordinates": [
          -41.757010348977765,
          18.40886358963247
        ]
      }
    },
    {
      "type": "Feature",
      "properties": {
        "norad_id": 64899,
        "name": "MICROCARB",
        "group": "resource",
        "lat": 11.645533607201312,
        "lon": 73.17920474722928,
        "alt_km": 656.6459829300384,
        "timestamp": "2025-12-25T16:53:14.311980+00:00",
        "meta_object_name": "MICROCARB",
        "meta_object_id": "2025-156A",
        "meta_epoch": "2025-12-25T05:24:52.786080",
        "meta_mean_motion": 14.72076741,
        "meta_eccentricity": 0.00176327,
        "meta_inclination": 98.001,
        "meta_ra_of_asc_node": 74.3701,
        "meta_arg_of_pericenter": 107.3517,
        "meta_mean_anomaly": 252.962,
        "meta_ephemeris_type": 0,
        "meta_classification_type": "U",
        "meta_norad_cat_id": 64899,
        "meta_element_set_no": 999,
        "meta_rev_at_epoch": 2237,
        "meta_bstar": 0.00012512947,
        "meta_mean_motion_dot": 7.39e-06,
        "meta_mean_motion_ddot": 0,
        "tle_line1": "1 64899U 25156A   25359.22561095  .00000739  00000+0  12513-3 0  9992",
        "tle_line2": "2 64899  98.0010  74.3701 0017632 107.3517 252.9620 14.72076741 22370"
      },
      "geometry": {
        "type": "Point",
        "coordinates": [
          73.17920474722928,
          11.645533607201312
        ]
      }
    },
    {
      "type": "Feature",
      "properties": {
        "norad_id": 64900,
        "name": "CO3D 3",
        "group": "resource",
        "lat": 43.29737269127285,
        "lon": -97.04835007671774,
        "alt_km": 501.33091245500236,
        "timestamp": "2025-12-25T16:53:14.311990+00:00",
        "meta_object_name": "CO3D 3",
        "meta_object_id": "2025-156B",
        "meta_epoch": "2025-12-25T06:48:43.121088",
        "meta_mean_motion": 15.20194746,
        "meta_eccentricity": 0.00013935,
        "meta_inclination": 97.4336,
        "meta_ra_of_asc_node": 75.4711,
        "meta_arg_of_pericenter": 69.8364,
        "meta_mean_anomaly": 290.3021,
        "meta_ephemeris_type": 0,
        "meta_classification_type": "U",
        "meta_norad_cat_id": 64900,
        "meta_element_set_no": 999,
        "meta_rev_at_epoch": 2311,
        "meta_bstar": 0.00030210139,
        "meta_mean_motion_dot": 6.476e-05,
        "meta_mean_motion_ddot": 0,
        "tle_line1": "1 64900U 25156B   25359.28383242  .00006476  00000+0  30210-3 0  9995",
        "tle_line2": "2 64900  97.4336  75.4711 0001393  69.8364 290.3021 15.20194746 23113"
      },
      "geometry": {
        "type": "Point",
        "coordinates": [
          -97.04835007671774,
          43.29737269127285
        ]
      }
    },
    {
      "type": "Feature",
      "properties": {
        "norad_id": 64901,
        "name": "CO3D 4",
        "group": "resource",
        "lat": 44.0362672795596,
        "lon": -96.86270110953403,
        "alt_km": 500.5382647835031,
        "timestamp": "2025-12-25T16:53:14.312000+00:00",
        "meta_object_name": "CO3D 4",
        "meta_object_id": "2025-156C",
        "meta_epoch": "2025-12-25T03:39:21.157344",
        "meta_mean_motion": 15.20222514,
        "meta_eccentricity": 0.00014907,
        "meta_inclination": 97.4335,
        "meta_ra_of_asc_node": 75.3414,
        "meta_arg_of_pericenter": 157.6472,
        "meta_mean_anomaly": 202.4828,
        "meta_ephemeris_type": 0,
        "meta_classification_type": "U",
        "meta_norad_cat_id": 64901,
        "meta_element_set_no": 999,
        "meta_rev_at_epoch": 2309,
        "meta_bstar": 0.00020286523,
        "meta_mean_motion_dot": 4.329e-05,
        "meta_mean_motion_ddot": 0,
        "tle_line1": "1 64901U 25156C   25359.15232821  .00004329  00000+0  20287-3 0  9996",
        "tle_line2": "2 64901  97.4335  75.3414 0001490 157.6472 202.4828 15.20222514 23097"
      },
      "geometry": {
        "type": "Point",
        "coordinates": [
          -96.86270110953403,
          44.0362672795596
        ]
      }
    },
    {
      "type": "Feature",
      "properties": {
        "norad_id": 64902,
        "name": "CO3D 2",
        "group": "resource",
        "lat": -42.00042539079946,
        "lon": 82.53520889711814,
        "alt_km": 512.0280843037481,
        "timestamp": "2025-12-25T16:53:14.312010+00:00",
        "meta_object_name": "CO3D 2",
        "meta_object_id": "2025-156D",
        "meta_epoch": "2025-12-25T06:00:55.338336",
        "meta_mean_motion": 15.2019147,
        "meta_eccentricity": 8.187e-05,
        "meta_inclination": 97.4337,
        "meta_ra_of_asc_node": 75.3372,
        "meta_arg_of_pericenter": 60.991,
        "meta_mean_anomaly": 299.1407,
        "meta_ephemeris_type": 0,
        "meta_classification_type": "U",
        "meta_norad_cat_id": 64902,
        "meta_element_set_no": 999,
        "meta_rev_at_epoch": 2310,
        "meta_bstar": 0.00028750247,
        "meta_mean_motion_dot": 6.159e-05,
        "meta_mean_motion_ddot": 0,
        "tle_line1": "1 64902U 25156D   25359.25064049  .00006159  00000+0  28750-3 0  9999",
        "tle_line2": "2 64902  97.4337  75.3372 0000818  60.9910 299.1407 15.20191470 23103"
      },
      "geometry": {
        "type": "Point",
        "coordinates": [
          82.53520889711814,
          -42.00042539079946
        ]
      }
    }
  ]
}